ONEWEB-0387             
1 49313U 21090AL  25273.21782761 -.00000022  00000+0 -86075-4 0  9990
2 49313  87.9242 326.3122 0002136  92.1452 267.9926 13.20773248195506
ONEWEB-0388             
1 49314U 21090AM  25272.74971185  .00000012  00000+0 -15778-5 0  9999
2 49314  87.9280 356.7803 0001783  95.5680 264.5656 13.19725978192065
ONEWEB-0389             
1 50469U 21132A   25272.81358393  .00000060  00000+0  12163-3 0  9992
2 50469  87.9075  57.6522 0001866  83.7842 276.3502 13.17647769183796
ONEWEB-0390             
1 50470U 21132B   25272.96714963  .00000089  00000+0  19563-3 0  9991
2 50470  87.9073  57.6275 0001884  99.8313 260.3031 13.17650898183812
ONEWEB-0391             
1 50471U 21132C   25272.96884803 -.00000028  00000+0 -10625-3 0  9998
2 50471  87.9069  57.6391 0002451  82.7866 277.3544 13.17648494183818
ONEWEB-0392             
1 50472U 21132D   25272.84734354  .00000131  00000+0  30296-3 0  9990
2 50472  87.9076  57.6099 0001946  86.3546 273.7808 13.17648444183835
ONEWEB-0393             
1 50473U 21132E   25272.89641850  .00000018  00000+0  14453-4 0  9996
2 50473  87.9080  57.6199 0001786  90.3826 269.7510 13.17647770183836
ONEWEB-0394             
1 50474U 21132F   25273.29670496  .00000078  00000+0  16638-3 0  9992
2 50474  87.9215  27.0449 0001751  94.1666 265.9666 13.18685189187349
